[{"OBJECT_NAME":"KUIPER-00145","OBJECT_ID":"2025-217F","EPOCH":"2026-03-09T06:48:00.136224","MEAN_MOTION":14.79949289,"ECCENTRICITY":7.642e-5,"INCLINATION":51.9004,"RA_OF_ASC_NODE":39.9007,"ARG_OF_PERICENTER":85.7448,"MEAN_ANOMALY":274.3601,"EPHEMERIS_TYPE":0,"CLASSIFICATION_TYPE":"U","NORAD_CAT_ID":65767,"ELEMENT_SET_NO":999,"REV_AT_EPOCH":2488,"BSTAR":0.00075419051,"MEAN_MOTION_DOT":5.535e-5,"MEAN_MOTION_DDOT":0},{"OBJECT_NAME":"CZ-4 DEB","OBJECT_ID":"1990-081BL","EPOCH":"2026-03-09T17:23:57.962688","MEAN_MOTION":14.8316917,"ECCENTRICITY":0.0022936,"INCLINATION":99.0368,"RA_OF_ASC_NODE":144.8877,"ARG_OF_PERICENTER":127.0337,"MEAN_ANOMALY":352.4491,"EPHEMERIS_TYPE":0,"CLASSIFICATION_TYPE":"U","NORAD_CAT_ID":20900,"ELEMENT_SET_NO":999,"REV_AT_EPOCH":83354,"BSTAR":0.0030046619,"MEAN_MOTION_DOT":0.00024647,"MEAN_MOTION_DDOT":0}]
